STARLINK-1470           
1 45772U 20038AU  26068.60892913  .00054678  00000+0  19687-2 0  9990
2 45772  53.0480 174.6971 0002444  12.8687 347.2373 15.28074860317065
STARLINK-31357          
1 59502U 24071U   26067.46083297  .00001700  00000+0  71267-4 0  9999
2 59502  43.0025 347.0335 0001013 264.2594  95.8142 15.27591756108016
